ORBCOMM FM105           
1 41181U 15081C   26062.03699086  .00000292  00000+0  12657-3 0  9993
2 41181  47.0007  83.5002 0001317   6.5816 353.5081 14.45486898538199
ORBCOMM FM110           
1 41182U 15081D   26061.60287500  .00001171  00000+0  28484-3 0  9992
2 41182  47.0014 145.3457 0003561 291.4189  68.6316 14.58717336542064
ORBCOMM FM118           
1 41183U 15081E   26062.18539931  .00001068  00000+0  26303-3 0  9998
2 41183  47.0035 142.9056 0003908 262.8675  97.1767 14.58714336542258
ORBCOMM FM112           
1 41184U 15081F   26061.16095813  .00000884  00000+0  22380-3 0  9998
2 41184  46.9993  56.2504 0001049  41.3329 318.7636 14.58714074543320
ORBCOMM FM113           
1 41185U 15081G   26062.02859094  .00000816  00000+0  20945-3 0  9994
2 41185  47.0010  52.5158 0000602  53.9550 306.1391 14.58716667543437
ORBCOMM FM115           
1 41186U 15081H   26061.91871205  .00000925  00000+0  21240-3 0  9990
2 41186  46.9973 248.4775 0001113 202.9760 157.1077 14.63103599545653
ORBCOMM FM108           
1 41187U 15081J   26062.12823716  .00001167  00000+0  28386-3 0  9996
2 41187  47.0060 323.5848 0002219  56.0117 304.0979 14.58728544544594
ORBCOMM FM117           
1 41188U 15081K   26062.09375520  .00001107  00000+0  27116-3 0  9992
2 41188  47.0023 322.4166 0002543  66.8447 293.2706 14.58720328544634
ORBCOMM FM116           
1 41189U 15081L   26062.14302163  .00000958  00000+0  23956-3 0  9993
2 41189  47.0028  51.9647 0002691 289.7792  70.2803 14.58710608543451
